{
  "type": "FeatureCollection",
  "properties": {
    "_nota": "Geometrias simplificadas (poligonos ilustrativos) para prototipar zoom semantico e drill-down. Substituir por malha oficial (ex.: IBGE) antes de qualquer uso com precisao cartografica."
  },
  "features": [
    {
      "type": "Feature",
      "properties": {
        "id": "sp",
        "nome": "São Paulo",
        "sigla": "SP",
        "paisId": "brasil",
        "aliquotaEstadual": 0.18,
        "investimentoInfraestrutura": 22,
        "indiceDesenvolvimento": 78
      },
      "geometry": {
        "type": "Polygon",
        "coordinates": [[
          [-53.1, -22.5], [-50.5, -19.9], [-47.5, -19.8], [-45.5, -20.8],
          [-44.8, -22.4], [-45.8, -23.6], [-48.0, -25.3], [-50.5, -24.9],
          [-52.5, -23.5], [-53.1, -22.5]
        ]]
      }
    },
    {
      "type": "Feature",
      "properties": {
        "id": "rj",
        "nome": "Rio de Janeiro",
        "sigla": "RJ",
        "paisId": "brasil",
        "aliquotaEstadual": 0.20,
        "investimentoInfraestrutura": 16,
        "indiceDesenvolvimento": 72
      },
      "geometry": {
        "type": "Polygon",
        "coordinates": [[
          [-44.9, -22.9], [-44.5, -21.1], [-42.5, -20.8], [-41.0, -21.2],
          [-40.9, -22.3], [-42.0, -23.4], [-43.7, -23.05], [-44.9, -22.9]
        ]]
      }
    },
    {
      "type": "Feature",
      "properties": {
        "id": "mg",
        "nome": "Minas Gerais",
        "sigla": "MG",
        "paisId": "brasil",
        "aliquotaEstadual": 0.17,
        "investimentoInfraestrutura": 14,
        "indiceDesenvolvimento": 64
      },
      "geometry": {
        "type": "Polygon",
        "coordinates": [[
          [-51.0, -20.0], [-49.5, -14.5], [-46.0, -14.2], [-42.5, -15.0],
          [-39.9, -17.9], [-40.5, -19.5], [-41.8, -21.0], [-44.0, -22.0],
          [-46.5, -22.9], [-49.0, -22.5], [-50.5, -21.0], [-51.0, -20.0]
        ]]
      }
    },
    {
      "type": "Feature",
      "properties": {
        "id": "es",
        "nome": "Espírito Santo",
        "sigla": "ES",
        "paisId": "brasil",
        "aliquotaEstadual": 0.16,
        "investimentoInfraestrutura": 12,
        "indiceDesenvolvimento": 62
      },
      "geometry": {
        "type": "Polygon",
        "coordinates": [[
          [-41.9, -19.8], [-41.0, -17.9], [-39.9, -18.3], [-39.6, -19.6],
          [-40.3, -21.0], [-41.2, -21.3], [-41.9, -19.8]
        ]]
      }
    }
  ]
}
